NORAD_CAT_ID,OBJECT_NAME,OBJECT_TYPE,EPOCH,MEAN_MOTION,ECCENTRICITY,INCLINATION,RA_OF_ASC_NODE,ARG_OF_PERICENTER,MEAN_ANOMALY,BSTAR,MEAN_MOTION_DOT,MEAN_MOTION_DDOT,TLE_LINE0,TLE_LINE1,TLE_LINE2,SEMIMAJOR_AXIS,PERIOD,APOGEE,PERIGEE,DECAYED
51813.0,STARLINK-3552,PAYLOAD,2022-12-20 13:59:07,15.08846056,0.0002806,53.2169,204.3884,32.3424,327.7739,0.00017696,2.53e-05,0.0,0 STARLINK-3552,1 51813U 22017AX  22354.58272123  .00002530  00000-0  17696-3 0  9998,2 51813  53.2169 204.3884 0002806  32.3424 327.7739 15.08846056 46684,6917.861999999999,95.437,541.668,537.786,0.0
51813.0,STARLINK-3552,PAYLOAD,2022-12-20 23:31:26,15.08838418,0.0002951,53.2176,202.606,29.2365,330.8792,0.00015152,2.124e-05,0.0,0 STARLINK-3552,1 51813U 22017AX  22354.98016684  .00002124  00000-0  15152-3 0  9994,2 51813  53.2176 202.6060 0002951  29.2365 330.8792 15.08838418 46855,6917.885,95.438,541.7919999999998,537.7090000000002,0.0
51813.0,STARLINK-3552,PAYLOAD,2022-12-21 09:03:45,15.08838991,0.0002878999999999,53.2174,200.8211,32.6411,327.4759,0.00012099,1.638e-05,0.0,0 STARLINK-3552,1 51813U 22017AX  22355.37760864  .00001638  00000-0  12099-3 0  9990,2 51813  53.2174 200.8211 0002879  32.6411 327.4759 15.08838991 46806,6917.8830000000025,95.438,541.74,537.757,0.0
51813.0,STARLINK-3552,PAYLOAD,2022-12-21 15:25:18,15.08832094,0.0002927,53.2169,199.6314,33.4626,326.6551,7.8862e-07,-2.76e-06,0.0,0 STARLINK-3552,1 51813U 22017AX  22355.64257664 -.00000276  00000-0  78862-6 0  9990,2 51813  53.2169 199.6314 0002927  33.4626 326.6551 15.08832094 46955,6917.905,95.438,541.794,537.745,0.0
51813.0,STARLINK-3552,PAYLOAD,2022-12-22 08:54:33,15.08837086,0.0002995,53.2168,196.3607,34.2183,325.9001,-3.5746e-05,-8.58e-06,0.0,0 STARLINK-3552,1 51813U 22017AX  22356.37121586 -.00000858  00000-0 -35746-4 0  9993,2 51813  53.2168 196.3607 0002995  34.2183 325.9001 15.08837086 46953,6917.889,95.438,541.826,537.682,0.0
51813.0,STARLINK-3552,PAYLOAD,2022-12-22 15:16:05,15.08839418,0.0003013,53.2167,195.1711,35.041,325.078,-5.5374e-05,-1.17e-05,0.0,0 STARLINK-3552,1 51813U 22017AX  22356.63617479 -.00001170  00000-0 -55374-4 0  9990,2 51813  53.2167 195.1711 0003013  35.0410 325.0780 15.08839418 47103,6917.882,95.438,541.832,537.663,0.0
51813.0,STARLINK-3552,PAYLOAD,2022-12-22 16:51:28,15.0884004,0.000302,53.2167,194.8738,35.0274,325.0916,-4.1533e-05,-9.5e-06,0.0,0 STARLINK-3552,1 51813U 22017AX  22356.70241435 -.00000950  00000-0 -41533-4 0  9990,2 51813  53.2167 194.8738 0003020  35.0274 325.0916 15.08840040 47007,6917.88,95.438,541.8340000000002,537.656,0.0
51813.0,STARLINK-3552,PAYLOAD,2022-12-23 13:31:29,15.08833722,0.0002934,53.2167,191.0075,35.1498,324.9687,0.00011164,1.488e-05,0.0,0 STARLINK-3552,1 51813U 22017AX  22357.56353485  .00001488  00000-0  11164-3 0  9995,2 51813  53.2167 191.0075 0002934  35.1498 324.9687 15.08833722 47138,6917.9,95.438,541.794,537.735,0.0
51813.0,STARLINK-3552,PAYLOAD,2022-12-23 16:42:15,15.08834854,0.0002907,53.2164,190.4122,36.1369,323.9819,0.00011472,1.538e-05,0.0,0 STARLINK-3552,1 51813U 22017AX  22357.69601449  .00001538  00000-0  11472-3 0  9993,2 51813  53.2164 190.4122 0002907  36.1369 323.9819 15.08834854 47266,6917.896,95.438,541.7719999999998,537.75,0.0
51813.0,STARLINK-3552,PAYLOAD,2022-12-23 19:53:01,15.08836685,0.0002957,53.2164,189.8178,35.9994,324.1197,0.00013235,1.818e-05,0.0,0 STARLINK-3552,1 51813U 22017AX  22357.82849424  .00001818  00000-0  13235-3 0  9995,2 51813  53.2164 189.8178 0002957  35.9994 324.1197 15.08836685 47171,6917.891,95.438,541.8009999999998,537.71,0.0
51813.0,STARLINK-3552,PAYLOAD,2022-12-24 11:46:53,15.0884215,0.0002989,53.2162,186.8441,37.5715,322.5486,0.0001571999999999,2.214e-05,0.0,0 STARLINK-3552,1 51813U 22017AX  22358.49089183  .00002214  00000-0  15720-3 0  9999,2 51813  53.2162 186.8441 0002989  37.5715 322.5486 15.08842150 47271,6917.874,95.437,541.807,537.6709999999998,0.0
51813.0,STARLINK-3552,PAYLOAD,2022-12-24 18:08:25,15.08845531,0.0003003,53.2162,185.6546,38.1799,321.9406,0.00016681,2.368e-05,0.0,0 STARLINK-3552,1 51813U 22017AX  22358.75584963  .00002368  00000-0  16681-3 0  9991,2 51813  53.2162 185.6546 0003003  38.1799 321.9406 15.08845531 47429,6917.863,95.437,541.806,537.651,0.0
51813.0,STARLINK-3552,PAYLOAD,2022-12-24 21:19:11,15.08847043,0.0003037,53.2164,185.0596,38.0121,322.1085,0.00015699,2.211e-05,0.0,0 STARLINK-3552,1 51813U 22017AX  22358.88832879  .00002211  00000-0  15699-3 0  9992,2 51813  53.2164 185.0596 0003037  38.0121 322.1085 15.08847043 47331,6917.859,95.437,541.825,537.623,0.0
51813.0,STARLINK-3552,PAYLOAD,2022-12-25 05:16:07,15.08848816,0.0003058,53.2164,183.5728,38.2121,321.9087,0.00012718,1.737e-05,0.0,0 STARLINK-3552,1 51813U 22017AX  22359.21952799  .00001737  00000-0  12718-3 0  9995,2 51813  53.2164 183.5728 0003058  38.2121 321.9087 15.08848816 47389,6917.853,95.437,541.8340000000002,537.6030000000002,0.0
51813.0,STARLINK-3552,PAYLOAD,2022-12-25 19:34:36,15.08835062,0.0003067,53.2171,180.8971,43.3842,316.7391,4.6169e-05,4.46e-06,0.0,0 STARLINK-3552,1 51813U 22017AX  22359.81569737  .00000446  00000-0  46169-4 0  9991,2 51813  53.2171 180.8971 0003067  43.3842 316.7391 15.08835062 47585,6917.895,95.438,541.882,537.639,0.0
51813.0,STARLINK-3552,PAYLOAD,2022-12-25 21:09:59,15.08832626,0.0003127,53.2168,180.5995,41.3336,318.7892,1.4686e-05,-5.5e-07,0.0,0 STARLINK-3552,1 51813U 22017AX  22359.88193927 -.00000055  00000-0  14686-4 0  9998,2 51813  53.2168 180.5995 0003127  41.3336 318.7892 15.08832626 47487,6917.903,95.438,541.931,537.605,0.0
51813.0,STARLINK-3552,PAYLOAD,2022-12-26 13:03:50,15.08842402,0.0003069,53.2167,177.6255,40.7235,319.3986,2.6259e-06,-2.47e-06,0.0,0 STARLINK-3552,1 51813U 22017AX  22360.54433367 -.00000247  00000-0  26259-5 0  9991,2 51813  53.2167 177.6255 0003069  40.7235 319.3986 15.08842402 47583,6917.873000000001,95.437,541.861,537.615,0.0
51813.0,STARLINK-3552,PAYLOAD,2022-12-26 21:00:45,15.08845713,0.0003097,53.2168,176.1388,41.3782,318.7445,3.2947e-05,2.36e-06,0.0,0 STARLINK-3552,1 51813U 22017AX  22360.87553058  .00000236  00000-0  32947-4 0  9994,2 51813  53.2168 176.1388 0003097  41.3782 318.7445 15.08845713 47637,6917.863,95.437,541.87,537.585,0.0
51813.0,STARLINK-3552,PAYLOAD,2022-12-27 11:19:13,15.08863944,0.0003217,53.2169,173.4624,41.4153,318.7083,-0.00016635,-2.937e-05,0.0,0 STARLINK-3552,1 51813U 22017AX  22361.47167912 -.00002937  00000-0 -16635-3 0  9998,2 51813  53.2169 173.4624 0003217  41.4153 318.7083 15.08863944 47722,6917.807,95.436,541.898,537.447,0.0
51813.0,STARLINK-3552,PAYLOAD,2022-12-27 17:40:46,15.08846548,0.000309,53.2167,172.2729,42.6941,317.4290000000001,0.00018572,2.669e-05,0.0,0 STARLINK-3552,1 51813U 22017AX  22361.73664537  .00002669  00000-0  18572-3 0  9994,2 51813  53.2167 172.2729 0003090  42.6941 317.4290 15.08846548 47761,6917.86,95.437,541.863,537.5880000000002,0.0
51813.0,STARLINK-3552,PAYLOAD,2022-12-27 20:51:32,15.08849716,0.0003145,53.2159,171.6781,42.9773,317.1464,0.00023391,3.437e-05,0.0,0 STARLINK-3552,1 51813U 22017AX  22361.86912538  .00003437  00000-0  23391-3 0  9994,2 51813  53.2159 171.6781 0003145  42.9773 317.1464 15.08849716 47782,6917.851,95.437,541.891,537.54,0.0
51813.0,STARLINK-3552,PAYLOAD,2022-12-28 14:20:46,15.08843109,0.0003017,53.2158,168.4057,43.4287,316.6942,0.00012573,1.713e-05,0.0,0 STARLINK-3552,1 51813U 22017AX  22362.59776597  .00001713  00000-0  12573-3 0  9993,2 51813  53.2158 168.4057 0003017  43.4287 316.6942 15.08843109 48006,6917.871,95.437,541.823,537.649,0.0
51813.0,STARLINK-3552,PAYLOAD,2022-12-28 20:42:19,15.08840875,0.0003207,53.2155,167.2174,46.6123,313.5136,7.8646e-05,9.63e-06,0.0,0 STARLINK-3552,1 51813U 22017AX  22362.86272732  .00000963  00000-0  78646-4 0  9995,2 51813  53.2155 167.2174 0003207  46.6123 313.5136 15.08840875 47934,6917.878000000002,95.437,541.961,537.524,0.0
51813.0,STARLINK-3552,PAYLOAD,2022-12-29 04:39:15,15.08842377,0.0003165,53.2156,165.7304,46.0864,314.0389,6.5181e-05,7.49e-06,0.0,0 STARLINK-3552,1 51813U 22017AX  22363.19392624  .00000749  00000-0  65181-4 0  9997,2 51813  53.2156 165.7304 0003165  46.0864 314.0389 15.08842377 47982,6917.873000000001,95.437,541.928,537.549,0.0
51813.0,STARLINK-3552,PAYLOAD,2022-12-29 14:11:34,15.0883867,0.0002833,53.2163,163.9464,46.6594,313.4634,-3.3131e-05,-8.16e-06,0.0,0 STARLINK-3552,1 51813U 22017AX  22363.59137073 -.00000816  00000-0 -33131-4 0  9993,2 51813  53.2163 163.9464 0002833  46.6594 313.4634 15.08838670 48151,6917.884,95.438,541.7090000000002,537.79,0.0
51813.0,STARLINK-3552,PAYLOAD,2022-12-30 10:51:34,15.08841847,0.0002998,53.2164,160.0814,42.9604,317.1621,0.0001006,1.313e-05,0.0,0 STARLINK-3552,1 51813U 22017AX  22364.45248638  .00001313  00000-0  10060-3 0  9995,2 51813  53.2164 160.0814 0002998  42.9604 317.1621 15.08841847 48171,6917.875,95.437,541.814,537.6659999999998,0.0
51813.0,STARLINK-3552,PAYLOAD,2022-12-30 17:13:07,15.08846494,0.0003099,53.2157,158.8918,44.23,315.8939,0.00022804,3.343e-05,0.0,0 STARLINK-3552,1 51813U 22017AX  22364.71744638  .00003343  00000-0  22804-3 0  9999,2 51813  53.2157 158.8918 0003099  44.2300 315.8939 15.08846494 48321,6917.861,95.437,541.869,537.582,0.0
51813.0,STARLINK-3552,PAYLOAD,2022-12-31 10:42:21,15.08850011,0.0003143999999999,53.2159,155.62,47.107,313.0185,0.00034121,5.148e-05,0.0,0 STARLINK-3552,1 51813U 22017AX  22365.44608371  .00005148  00000-0  34121-3 0  9993,2 51813  53.2159 155.6200 0003144  47.1070 313.0185 15.08850011 48322,6917.85,95.437,541.89,537.54,0.0
51813.0,STARLINK-3552,PAYLOAD,2022-12-31 17:03:53,15.08854338,0.0003218,53.2158,154.431,45.9962,314.1295,0.00033863,5.107e-05,0.0,0 STARLINK-3552,1 51813U 22017AX  22365.71104143  .00005107  00000-0  33863-3 0  9998,2 51813  53.2158 154.4310 0003218  45.9962 314.1295 15.08854338 48362,6917.837,95.437,541.928,537.475,0.0
